[{"OBJECT_NAME":"STARLINK-5000","OBJECT_ID":"2022-119BB","EPOCH":"2026-03-09T22:20:27.113568","MEAN_MOTION":15.08856539,"ECCENTRICITY":0.00014677,"INCLINATION":53.2177,"RA_OF_ASC_NODE":287.9186,"ARG_OF_PERICENTER":85.1564,"MEAN_ANOMALY":274.9596,"EPHEMERIS_TYPE":0,"CLASSIFICATION_TYPE":"U","NORAD_CAT_ID":53935,"ELEMENT_SET_NO":999,"REV_AT_EPOCH":19221,"BSTAR":0.00017473704,"MEAN_MOTION_DOT":2.495e-5,"MEAN_MOTION_DDOT":0},{"OBJECT_NAME":"SL-24 PLAT","OBJECT_ID":"2014-033AR","EPOCH":"2026-03-09T22:47:27.152448","MEAN_MOTION":15.0919716,"ECCENTRICITY":0.00052059,"INCLINATION":98.0981,"RA_OF_ASC_NODE":61.9435,"ARG_OF_PERICENTER":212.2329,"MEAN_ANOMALY":147.8581,"EPHEMERIS_TYPE":0,"CLASSIFICATION_TYPE":"U","NORAD_CAT_ID":40049,"ELEMENT_SET_NO":999,"REV_AT_EPOCH":63724,"BSTAR":0.00046923352,"MEAN_MOTION_DOT":7.393e-5,"MEAN_MOTION_DDOT":0}]
